start=new Date('2022-10-24T00:00:00.000Z').valueOf();
sats=[{"NORAD_CAT_ID":"49143","RA_OF_ASC_NODE":"143.1187","ARG_OF_PERICENTER":"233.1395","TLE_LINE2":"2 49143  69.9976 143.1187 0003718 233.1395 126.9423 14.98341360 62902","OBJECT_TYPE":"PAYLOAD","CLASSIFICATION_TYPE":"U","APOAPSIS":"574.607","TIME_SYSTEM":"UTC","ECCENTRICITY":"0.00037180","GP_ID":"215996199","OBJECT_NAME":"STARLINK-3109","MEAN_MOTION":"14.98341360","OBJECT_ID":"2021-082P","EPHEMERIS_TYPE":"0","COUNTRY_CODE":"US","REV_AT_EPOCH":"6290","RCS_SIZE":"LARGE","FILE":"3630604","INCLINATION":"69.9976","EPOCH":"2022-10-23T18:03:10.238976","MEAN_MOTION_DDOT":"0.0000000000000","PERIOD":"96.106","ELEMENT_SET_NO":"999","REF_FRAME":"TEME","MEAN_ANOMALY":"126.9423","DECAY_DATE":null,"TLE_LINE1":"1 49143U 21082P   22296.75220184  .00001114  00000-0  10113-3 0  9990","MEAN_MOTION_DOT":"0.00001114","MEAN_ELEMENT_THEORY":"SGP4","CENTER_NAME":"EARTH","BSTAR":"0.00010113000000","PERIAPSIS":"569.439","LAUNCH_DATE":"2021-09-14","SITE":"AFWTR","SEMIMAJOR_AXIS":"6950.158"},{"ELEMENT_SET_NO":"999","PERIOD":"96.106","TLE_LINE1":"1 49144U 21082Q   22296.77948775  .00005259  00000-0  44793-3 0  9991","MEAN_MOTION_DOT":"0.00005259","MEAN_ANOMALY":"105.3857","DECAY_DATE":null,"REF_FRAME":"TEME","EPOCH":"2022-10-23T18:42:27.741600","INCLINATION":"70.0006","MEAN_MOTION_DDOT":"0.0000000000000","BSTAR":"0.00044793000000","SITE":"AFWTR","SEMIMAJOR_AXIS":"6950.129","LAUNCH_DATE":"2021-09-14","PERIAPSIS":"569.733","CENTER_NAME":"EARTH","MEAN_ELEMENT_THEORY":"SGP4","ECCENTRICITY":"0.00032520","TIME_SYSTEM":"UTC","GP_ID":"215996951","RA_OF_ASC_NODE":"163.0654","ARG_OF_PERICENTER":"254.6942","NORAD_CAT_ID":"49144","APOAPSIS":"574.254","TLE_LINE2":"2 49144  70.0006 163.0654 0003252 254.6942 105.3857 14.98350796 61307","CLASSIFICATION_TYPE":"U","OBJECT_TYPE":"PAYLOAD","COUNTRY_CODE":"US","FILE":"3630604","RCS_SIZE":"LARGE","REV_AT_EPOCH":"6130","OBJECT_NAME":"STARLINK-3100","EPHEMERIS_TYPE":"0","OBJECT_ID":"2021-082Q","MEAN_MOTION":"14.98350796"},{"COUNTRY_CODE":"US","FILE":"3630604","RCS_SIZE":"LARGE","REV_AT_EPOCH":"6227","OBJECT_NAME":"STARLINK-3119","EPHEMERIS_TYPE":"0","OBJECT_ID":"2021-082R","MEAN_MOTION":"14.98327733","TIME_SYSTEM":"UTC","ECCENTRICITY":"0.00025690","GP_ID":"215995699","RA_OF_ASC_NODE":"123.1861","ARG_OF_PERICENTER":"262.7775","NORAD_CAT_ID":"49145","APOAPSIS":"573.850","CLASSIFICATION_TYPE":"U","TLE_LINE2":"2 49145  69.9991 123.1861 0002569 262.7775  97.3092 14.98327733 62272","OBJECT_TYPE":"PAYLOAD","BSTAR":"0.00021849000000","SITE":"AFWTR","SEMIMAJOR_AXIS":"6950.200","LAUNCH_DATE":"2021-09-14","PERIAPSIS":"570.279","CENTER_NAME":"EARTH","MEAN_ELEMENT_THEORY":"SGP4","ELEMENT_SET_NO":"999","PERIOD":"96.107","MEAN_MOTION_DOT":"0.00002515","TLE_LINE1":"1 49145U 21082R   22296.72970085  .00002515  00000-0  21849-3 0  9995","MEAN_ANOMALY":"97.3092","DECAY_DATE":null,"REF_FRAME":"TEME","EPOCH":"2022-10-23T17:30:46.153440","INCLINATION":"69.9991","MEAN_MOTION_DDOT":"0.0000000000000"},{"RA_OF_ASC_NODE":"143.1458","ARG_OF_PERICENTER":"251.3312","NORAD_CAT_ID":"49146","APOAPSIS":"574.252","TLE_LINE2":"2 49146  69.9988 143.1458 0003170 251.3312 108.7503 14.98332962 62941","CLASSIFICATION_TYPE":"U","OBJECT_TYPE":"PAYLOAD","TIME_SYSTEM":"UTC","ECCENTRICITY":"0.00031700","GP_ID":"215995949","OBJECT_NAME":"STARLINK-3116","EPHEMERIS_TYPE":"0","OBJECT_ID":"2021-082S","MEAN_MOTION":"14.98332962","COUNTRY_CODE":"US","FILE":"3630604","RCS_SIZE":"LARGE","REV_AT_EPOCH":"6294","EPOCH":"2022-10-23T17:56:18.399552","INCLINATION":"69.9988","MEAN_MOTION_DDOT":"0.0000000000000","ELEMENT_SET_NO":"999","PERIOD":"96.107","TLE_LINE1":"1 49146U 21082S   22296.74743518  .00002630  00000-0  22808-3 0  9991","MEAN_MOTION_DOT":"0.00002630","DECAY_DATE":null,"MEAN_ANOMALY":"108.7503","REF_FRAME":"TEME","CENTER_NAME":"EARTH","MEAN_ELEMENT_THEORY":"SGP4","BSTAR":"0.00022808000000","SITE":"AFWTR","SEMIMAJOR_AXIS":"6950.184","LAUNCH_DATE":"2021-09-14","PERIAPSIS":"569.846"},{"REF_FRAME":"TEME","TLE_LINE1":"1 49147U 21082T   22296.80598949  .00000592  00000-0  57462-4 0  9995","MEAN_MOTION_DOT":"0.00000592","DECAY_DATE":null,"MEAN_ANOMALY":"100.8813","ELEMENT_SET_NO":"999","PERIOD":"96.108","MEAN_MOTION_DDOT":"0.0000000000000","INCLINATION":"69.9986","EPOCH":"2022-10-23T19:20:37.491936","LAUNCH_DATE":"2021-09-14","PERIAPSIS":"569.904","SITE":"AFWTR","SEMIMAJOR_AXIS":"6950.223","BSTAR":"0.00005746200000","MEAN_ELEMENT_THEORY":"SGP4","CENTER_NAME":"EARTH","GP_ID":"215996700","ECCENTRICITY":"0.00031420","TIME_SYSTEM":"UTC","TLE_LINE2":"2 49147  69.9986 122.9984 0003142 259.1993 100.8813 14.98320334 62294","OBJECT_TYPE":"PAYLOAD","CLASSIFICATION_TYPE":"U","APOAPSIS":"574.272","RA_OF_ASC_NODE":"122.9984","ARG_OF_PERICENTER":"259.1993","NORAD_CAT_ID":"49147","FILE":"3630604","RCS_SIZE":"LARGE","REV_AT_EPOCH":"6229","COUNTRY_CODE":"US","OBJECT_ID":"2021-082T","MEAN_MOTION":"14.98320334","EPHEMERIS_TYPE":"0","OBJECT_NAME":"STARLINK-3071"},{"OBJECT_NAME":"STARLINK-3048","EPHEMERIS_TYPE":"0","OBJECT_ID":"2021-082U","MEAN_MOTION":"14.98335442","COUNTRY_CODE":"US","FILE":"3630613","REV_AT_EPOCH":"6295","RCS_SIZE":"LARGE","ARG_OF_PERICENTER":"255.0990","RA_OF_ASC_NODE":"142.4730","NORAD_CAT_ID":"49148","APOAPSIS":"574.077","OBJECT_TYPE":"PAYLOAD","TLE_LINE2":"2 49148  69.9980 142.4730 0002929 255.0990 104.9845 14.98335442 62958","CLASSIFICATION_TYPE":"U","TIME_SYSTEM":"UTC","ECCENTRICITY":"0.00029290","GP_ID":"215998850","CENTER_NAME":"EARTH","MEAN_ELEMENT_THEORY":"SGP4","BSTAR":"0.00008024400000","SITE":"AFWTR","SEMIMAJOR_AXIS":"6950.176","LAUNCH_DATE":"2021-09-14","PERIAPSIS":"570.005","EPOCH":"2022-10-24T00:13:57.990144","INCLINATION":"69.9980","MEAN_MOTION_DDOT":"0.0000000000000","ELEMENT_SET_NO":"999","PERIOD":"96.107","TLE_LINE1":"1 49148U 21082U   22297.00969896  .00000865  00000-0  80244-4 0  9999","MEAN_MOTION_DOT":"0.00000865","DECAY_DATE":null,"MEAN_ANOMALY":"104.9845","REF_FRAME":"TEME"},{"COUNTRY_CODE":"US","REV_AT_EPOCH":"6249","RCS_SIZE":"LARGE","FILE":"3630604","OBJECT_NAME":"STARLINK-3053","MEAN_MOTION":"14.98332389","OBJECT_ID":"2021-082V","EPHEMERIS_TYPE":"0","TIME_SYSTEM":"UTC","ECCENTRICITY":"0.00032110","GP_ID":"215995199","NORAD_CAT_ID":"49149","RA_OF_ASC_NODE":"163.0746","ARG_OF_PERICENTER":"252.2721","CLASSIFICATION_TYPE":"U","TLE_LINE2":"2 49149  70.0006 163.0746 0003211 252.2721 107.8088 14.98332389 62490","OBJECT_TYPE":"PAYLOAD","APOAPSIS":"574.282","BSTAR":"0.00014571000000","PERIAPSIS":"569.819","LAUNCH_DATE":"2021-09-14","SITE":"AFWTR","SEMIMAJOR_AXIS":"6950.186","MEAN_ELEMENT_THEORY":"SGP4","CENTER_NAME":"EARTH","PERIOD":"96.107","ELEMENT_SET_NO":"999","REF_FRAME":"TEME","DECAY_DATE":null,"MEAN_ANOMALY":"107.8088","MEAN_MOTION_DOT":"0.00001646","TLE_LINE1":"1 49149U 21082V   22296.77472121  .00001646  00000-0  14571-3 0  9990","INCLINATION":"70.0006","EPOCH":"2022-10-23T18:35:35.912544","MEAN_MOTION_DDOT":"0.0000000000000"},{"APOAPSIS":"574.160","CLASSIFICATION_TYPE":"U","TLE_LINE2":"2 49150  70.0011 163.0865 0003077 250.2814 109.8013 14.98341831 62493","OBJECT_TYPE":"PAYLOAD","NORAD_CAT_ID":"49150","RA_OF_ASC_NODE":"163.0865","ARG_OF_PERICENTER":"250.2814","GP_ID":"215995449","TIME_SYSTEM":"UTC","ECCENTRICITY":"0.00030770","EPHEMERIS_TYPE":"0","MEAN_MOTION":"14.98341831","OBJECT_ID":"2021-082W","OBJECT_NAME":"STARLINK-3104","RCS_SIZE":"LARGE","REV_AT_EPOCH":"6249","FILE":"3630604","COUNTRY_CODE":"US","MEAN_MOTION_DDOT":"0.0000000000000","EPOCH":"2022-10-23T18:28:43.637664","INCLINATION":"70.0011","MEAN_ANOMALY":"109.8013","DECAY_DATE":null,"TLE_LINE1":"1 49150U 21082W   22296.76994951  .00000109  00000-0  16960-4 0  9999","MEAN_MOTION_DOT":"0.00000109","REF_FRAME":"TEME","PERIOD":"96.106","ELEMENT_SET_NO":"999","CENTER_NAME":"EARTH","MEAN_ELEMENT_THEORY":"SGP4","SITE":"AFWTR","SEMIMAJOR_AXIS":"6950.156","PERIAPSIS":"569.883","LAUNCH_DATE":"2021-09-14","BSTAR":"0.00001696000000"},{"FILE":"3630604","REV_AT_EPOCH":"6347","RCS_SIZE":"LARGE","COUNTRY_CODE":"US","OBJECT_ID":"2021-082X","MEAN_MOTION":"14.98334291","EPHEMERIS_TYPE":"0","OBJECT_NAME":"STARLINK-3102","GP_ID":"215996200","TIME_SYSTEM":"UTC","ECCENTRICITY":"0.00032140","OBJECT_TYPE":"PAYLOAD","TLE_LINE2":"2 49151  69.9976 123.2067 0003214 248.1830 111.8987 14.98334291 63474","CLASSIFICATION_TYPE":"U","APOAPSIS":"574.278","ARG_OF_PERICENTER":"248.1830","RA_OF_ASC_NODE":"123.2067","NORAD_CAT_ID":"49151","LAUNCH_DATE":"2021-09-14","PERIAPSIS":"569.811","SEMIMAJOR_AXIS":"6950.180","SITE":"AFWTR","BSTAR":"0.00009462100000","MEAN_ELEMENT_THEORY":"SGP4","CENTER_NAME":"EARTH","REF_FRAME":"TEME","TLE_LINE1":"1 49151U 21082X   22296.72014814  .00001036  00000-0  94621-4 0  9997","MEAN_MOTION_DOT":"0.00001036","DECAY_DATE":null,"MEAN_ANOMALY":"111.8987","ELEMENT_SET_NO":"999","PERIOD":"96.107","MEAN_MOTION_DDOT":"0.0000000000000","INCLINATION":"69.9976","EPOCH":"2022-10-23T17:17:00.799296"},{"COUNTRY_CODE":"US","FILE":"3630604","REV_AT_EPOCH":"6340","RCS_SIZE":"LARGE","OBJECT_NAME":"STARLINK-3081","EPHEMERIS_TYPE":"0","OBJECT_ID":"2021-082Y","MEAN_MOTION":"14.98333283","ECCENTRICITY":"0.00031250","TIME_SYSTEM":"UTC","GP_ID":"215996952","RA_OF_ASC_NODE":"123.0943","ARG_OF_PERICENTER":"256.7074","NORAD_CAT_ID":"49152","APOAPSIS":"574.220","TLE_LINE2":"2 49152  69.9975 123.0943 0003125 256.7074 103.3736 14.98333283 63402","CLASSIFICATION_TYPE":"U","OBJECT_TYPE":"PAYLOAD","BSTAR":"0.00008411200000","SITE":"AFWTR","SEMIMAJOR_AXIS":"6950.183","LAUNCH_DATE":"2021-09-14","PERIAPSIS":"569.876","CENTER_NAME":"EARTH","MEAN_ELEMENT_THEORY":"SGP4","ELEMENT_SET_NO":"999","PERIOD":"96.107","TLE_LINE1":"1 49152U 21082Y   22296.76306646  .00000911  00000-0  84112-4 0  9994","MEAN_MOTION_DOT":"0.00000911","DECAY_DATE":null,"MEAN_ANOMALY":"103.3736","REF_FRAME":"TEME","EPOCH":"2022-10-23T18:18:48.942144","INCLINATION":"69.9975","MEAN_MOTION_DDOT":"0.0000000000000"}];
